SL-16 R/B               
1 25400U 98043G   26040.87667564  .00000090  00000+0  56603-4 0  9998
2 25400  98.8207 354.0514 0010940  94.6191 265.6239 14.26043051435026
SL-16 R/B               
1 25407U 98045B   26040.95562903  .00000074  00000+0  61559-4 0  9995
2 25407  71.0082 239.8975 0005424  59.6725 300.4934 14.16185342423175
ISS (ZARYA)             
1 25544U 98067A   26041.14883301  .00009718  00000+0  18714-3 0  9999
2 25544  51.6316 208.5012 0011102  83.1842 277.0409 15.48516896552063
CZ-4B R/B               
1 25732U 99025C   26041.07485793  .00000050  00000+0  44572-4 0  9990
2 25732  98.6682  86.0033 0038049  65.2155 324.7722 14.18259683384254
OKEAN-O                 
1 25860U 99039A   26041.14102893  .00000780  00000+0  10927-3 0  9998
2 25860  97.9505 101.3042 0001861  85.0338 275.1086 14.80289937430313
SL-16 R/B               
1 25861U 99039B   26041.14693209  .00000643  00000+0  88471-4 0  9993
2 25861  98.0027 100.2759 0014516 352.1940   7.9044 14.81692021432787
DELTA 2 R/B             
1 25876U 99041E   26041.18622279  .00002140  00000+0  38176-3 0  9995
2 25876  51.7654  51.1123 0502282 267.1789  87.1576 14.11726942359143
HELIOS 1B               
1 25977U 99064A   26041.20384888  .00002161  00000+0  24429-3 0  9995
2 25977  98.1721 302.6360 0002108 114.1883 245.9553 14.87583285681174
TERRA                   
1 25994U 99068A   26041.25440346  .00000506  00000+0  11226-3 0  9997
2 25994  97.9653  95.7289 0000942 260.5690 173.9497 14.60984491391079
SL-16 R/B               
1 26070U 00006B   26041.24641468 -.00000153  00000+0 -53448-4 0  9997
2 26070  71.0031 155.5398 0018329 228.9765 130.9774 14.15820473344677
TITAN 4B R/B            
1 26474U 00047B   26041.26337248  .00003293  00000+0  21104-3 0  9999
2 26474  67.9891 117.6191 0037057  69.0576 291.4533 15.09331403388775
ENVISAT                 
1 27386U 02009A   26041.30511370  .00000154  00000+0  63800-4 0  9990
2 27386  98.3681 355.5627 0001326  89.9488  69.3402 14.39026545255234
