CCSDS_OMM_VERS = 2.0
CREATION_DATE  = 
ORIGINATOR     = 

OBJECT_NAME    = SL-16 R/B
OBJECT_ID      = 1998-043G
CENTER_NAME    = EARTH
REF_FRAME      = TEME
TIME_SYSTEM    = UTC
MEAN_ELEMENT_THEORY = SGP/SGP4

EPOCH          = 2026-02-09T21:02:24.775296
MEAN_MOTION    = 14.26043051
ECCENTRICITY   = .001094
INCLINATION    = 98.8207
RA_OF_ASC_NODE = 354.0514
ARG_OF_PERICENTER = 94.6191
MEAN_ANOMALY   = 265.6239

EPHEMERIS_TYPE = 0
CLASSIFICATION_TYPE = U
NORAD_CAT_ID   = 25400
ELEMENT_SET_NO = 999
REV_AT_EPOCH   = 43502
BSTAR          = .56603E-4
MEAN_MOTION_DOT = .9E-6
MEAN_MOTION_DDOT = 0

CCSDS_OMM_VERS = 2.0
CREATION_DATE  = 
ORIGINATOR     = 

OBJECT_NAME    = SL-16 R/B
OBJECT_ID      = 1998-045B
CENTER_NAME    = EARTH
REF_FRAME      = TEME
TIME_SYSTEM    = UTC
MEAN_ELEMENT_THEORY = SGP/SGP4

EPOCH          = 2026-02-09T22:56:06.348192
MEAN_MOTION    = 14.16185342
ECCENTRICITY   = .0005424
INCLINATION    = 71.0082
RA_OF_ASC_NODE = 239.8975
ARG_OF_PERICENTER = 59.6725
MEAN_ANOMALY   = 300.4934

EPHEMERIS_TYPE = 0
CLASSIFICATION_TYPE = U
NORAD_CAT_ID   = 25407
ELEMENT_SET_NO = 999
REV_AT_EPOCH   = 42317
BSTAR          = .61559E-4
MEAN_MOTION_DOT = .74E-6
MEAN_MOTION_DDOT = 0

CCSDS_OMM_VERS = 2.0
CREATION_DATE  = 
ORIGINATOR     = 

OBJECT_NAME    = ISS (ZARYA)
OBJECT_ID      = 1998-067A
CENTER_NAME    = EARTH
REF_FRAME      = TEME
TIME_SYSTEM    = UTC
MEAN_ELEMENT_THEORY = SGP/SGP4

EPOCH          = 2026-02-10T03:34:19.172064
MEAN_MOTION    = 15.48516896
ECCENTRICITY   = .00111024
INCLINATION    = 51.6316
RA_OF_ASC_NODE = 208.5012
ARG_OF_PERICENTER = 83.1842
MEAN_ANOMALY   = 277.0409

EPHEMERIS_TYPE = 0
CLASSIFICATION_TYPE = U
NORAD_CAT_ID   = 25544
ELEMENT_SET_NO = 999
REV_AT_EPOCH   = 55206
BSTAR          = .18714395E-3
MEAN_MOTION_DOT = .9718E-4
MEAN_MOTION_DDOT = 0

CCSDS_OMM_VERS = 2.0
CREATION_DATE  = 
ORIGINATOR     = 

OBJECT_NAME    = CZ-4B R/B
OBJECT_ID      = 1999-025C
CENTER_NAME    = EARTH
REF_FRAME      = TEME
TIME_SYSTEM    = UTC
MEAN_ELEMENT_THEORY = SGP/SGP4

EPOCH          = 2026-02-10T01:47:47.725152
MEAN_MOTION    = 14.18259683
ECCENTRICITY   = .00380499
INCLINATION    = 98.6682
RA_OF_ASC_NODE = 86.0033
ARG_OF_PERICENTER = 65.2155
MEAN_ANOMALY   = 324.7722

EPHEMERIS_TYPE = 0
CLASSIFICATION_TYPE = U
NORAD_CAT_ID   = 25732
ELEMENT_SET_NO = 999
REV_AT_EPOCH   = 38425
BSTAR          = .44571583E-4
MEAN_MOTION_DOT = .5E-6
MEAN_MOTION_DDOT = 0

CCSDS_OMM_VERS = 2.0
CREATION_DATE  = 
ORIGINATOR     = 

OBJECT_NAME    = OKEAN-O
OBJECT_ID      = 1999-039A
CENTER_NAME    = EARTH
REF_FRAME      = TEME
TIME_SYSTEM    = UTC
MEAN_ELEMENT_THEORY = SGP/SGP4

EPOCH          = 2026-02-10T03:23:04.899552
MEAN_MOTION    = 14.80289937
ECCENTRICITY   = .00018613
INCLINATION    = 97.9505
RA_OF_ASC_NODE = 101.3042
ARG_OF_PERICENTER = 85.0338
MEAN_ANOMALY   = 275.1086

EPHEMERIS_TYPE = 0
CLASSIFICATION_TYPE = U
NORAD_CAT_ID   = 25860
ELEMENT_SET_NO = 999
REV_AT_EPOCH   = 43031
BSTAR          = .10926989E-3
MEAN_MOTION_DOT = .78E-5
MEAN_MOTION_DDOT = 0

CCSDS_OMM_VERS = 2.0
CREATION_DATE  = 
ORIGINATOR     = 

OBJECT_NAME    = SL-16 R/B
OBJECT_ID      = 1999-039B
CENTER_NAME    = EARTH
REF_FRAME      = TEME
TIME_SYSTEM    = UTC
MEAN_ELEMENT_THEORY = SGP/SGP4

EPOCH          = 2026-02-10T03:31:34.932576
MEAN_MOTION    = 14.81692021
ECCENTRICITY   = .00145167
INCLINATION    = 98.0027
RA_OF_ASC_NODE = 100.2759
ARG_OF_PERICENTER = 352.1940
MEAN_ANOMALY   = 7.9044

EPHEMERIS_TYPE = 0
CLASSIFICATION_TYPE = U
NORAD_CAT_ID   = 25861
ELEMENT_SET_NO = 999
REV_AT_EPOCH   = 43278
BSTAR          = .88471381E-4
MEAN_MOTION_DOT = .643E-5
MEAN_MOTION_DDOT = 0

CCSDS_OMM_VERS = 2.0
CREATION_DATE  = 
ORIGINATOR     = 

OBJECT_NAME    = DELTA 2 R/B
OBJECT_ID      = 1999-041E
CENTER_NAME    = EARTH
REF_FRAME      = TEME
TIME_SYSTEM    = UTC
MEAN_ELEMENT_THEORY = SGP/SGP4

EPOCH          = 2026-02-10T04:28:09.649056
MEAN_MOTION    = 14.11726942
ECCENTRICITY   = .05022826
INCLINATION    = 51.7654
RA_OF_ASC_NODE = 51.1123
ARG_OF_PERICENTER = 267.1789
MEAN_ANOMALY   = 87.1576

EPHEMERIS_TYPE = 0
CLASSIFICATION_TYPE = U
NORAD_CAT_ID   = 25876
ELEMENT_SET_NO = 999
REV_AT_EPOCH   = 35914
BSTAR          = .3817623E-3
MEAN_MOTION_DOT = .214E-4
MEAN_MOTION_DDOT = 0

CCSDS_OMM_VERS = 2.0
CREATION_DATE  = 
ORIGINATOR     = 

OBJECT_NAME    = HELIOS 1B
OBJECT_ID      = 1999-064A
CENTER_NAME    = EARTH
REF_FRAME      = TEME
TIME_SYSTEM    = UTC
MEAN_ELEMENT_THEORY = SGP/SGP4

EPOCH          = 2026-02-10T04:53:32.543232
MEAN_MOTION    = 14.87583285
ECCENTRICITY   = .00021087
INCLINATION    = 98.1721
RA_OF_ASC_NODE = 302.6360
ARG_OF_PERICENTER = 114.1883
MEAN_ANOMALY   = 245.9553

EPHEMERIS_TYPE = 0
CLASSIFICATION_TYPE = U
NORAD_CAT_ID   = 25977
ELEMENT_SET_NO = 999
REV_AT_EPOCH   = 68117
BSTAR          = .24428919E-3
MEAN_MOTION_DOT = .2161E-4
MEAN_MOTION_DDOT = 0

CCSDS_OMM_VERS = 2.0
CREATION_DATE  = 
ORIGINATOR     = 

OBJECT_NAME    = TERRA
OBJECT_ID      = 1999-068A
CENTER_NAME    = EARTH
REF_FRAME      = TEME
TIME_SYSTEM    = UTC
MEAN_ELEMENT_THEORY = SGP/SGP4

EPOCH          = 2026-02-10T06:06:20.458944
MEAN_MOTION    = 14.60984491
ECCENTRICITY   = .00009429
INCLINATION    = 97.9653
RA_OF_ASC_NODE = 95.7289
ARG_OF_PERICENTER = 260.5690
MEAN_ANOMALY   = 173.9497

EPHEMERIS_TYPE = 0
CLASSIFICATION_TYPE = U
NORAD_CAT_ID   = 25994
ELEMENT_SET_NO = 999
REV_AT_EPOCH   = 39107
BSTAR          = .11225917E-3
MEAN_MOTION_DOT = .506E-5
MEAN_MOTION_DDOT = 0

CCSDS_OMM_VERS = 2.0
CREATION_DATE  = 
ORIGINATOR     = 

OBJECT_NAME    = SL-16 R/B
OBJECT_ID      = 2000-006B
CENTER_NAME    = EARTH
REF_FRAME      = TEME
TIME_SYSTEM    = UTC
MEAN_ELEMENT_THEORY = SGP/SGP4

EPOCH          = 2026-02-10T05:54:50.228352
MEAN_MOTION    = 14.15820473
ECCENTRICITY   = .00183299
INCLINATION    = 71.0031
RA_OF_ASC_NODE = 155.5398
ARG_OF_PERICENTER = 228.9765
MEAN_ANOMALY   = 130.9774

EPHEMERIS_TYPE = 0
CLASSIFICATION_TYPE = U
NORAD_CAT_ID   = 26070
ELEMENT_SET_NO = 999
REV_AT_EPOCH   = 34467
BSTAR          = -.53448204E-4
MEAN_MOTION_DOT = -.153E-5
MEAN_MOTION_DDOT = 0

CCSDS_OMM_VERS = 2.0
CREATION_DATE  = 
ORIGINATOR     = 

OBJECT_NAME    = TITAN 4B R/B
OBJECT_ID      = 2000-047B
CENTER_NAME    = EARTH
REF_FRAME      = TEME
TIME_SYSTEM    = UTC
MEAN_ELEMENT_THEORY = SGP/SGP4

EPOCH          = 2026-02-10T06:19:15.382272
MEAN_MOTION    = 15.09331403
ECCENTRICITY   = .00370573
INCLINATION    = 67.9891
RA_OF_ASC_NODE = 117.6191
ARG_OF_PERICENTER = 69.0576
MEAN_ANOMALY   = 291.4533

EPHEMERIS_TYPE = 0
CLASSIFICATION_TYPE = U
NORAD_CAT_ID   = 26474
ELEMENT_SET_NO = 999
REV_AT_EPOCH   = 38877
BSTAR          = .21103953E-3
MEAN_MOTION_DOT = .3293E-4
MEAN_MOTION_DDOT = 0

CCSDS_OMM_VERS = 2.0
CREATION_DATE  = 
ORIGINATOR     = 

OBJECT_NAME    = ENVISAT
OBJECT_ID      = 2002-009A
CENTER_NAME    = EARTH
REF_FRAME      = TEME
TIME_SYSTEM    = UTC
MEAN_ELEMENT_THEORY = SGP/SGP4

EPOCH          = 2026-02-10T07:19:21.823680
MEAN_MOTION    = 14.39026545
ECCENTRICITY   = .00013269
INCLINATION    = 98.3681
RA_OF_ASC_NODE = 355.5627
ARG_OF_PERICENTER = 89.9488
MEAN_ANOMALY   = 69.3402

EPHEMERIS_TYPE = 0
CLASSIFICATION_TYPE = U
NORAD_CAT_ID   = 27386
ELEMENT_SET_NO = 999
REV_AT_EPOCH   = 25523
BSTAR          = .63799622E-4
MEAN_MOTION_DOT = .154E-5
MEAN_MOTION_DDOT = 0

